OBJECT_NAME,OBJECT_ID,EPOCH,MEAN_MOTION,ECCENTRICITY,INCLINATION,RA_OF_ASC_NODE,ARG_OF_PERICENTER,MEAN_ANOMALY,EPHEMERIS_TYPE,CLASSIFICATION_TYPE,NORAD_CAT_ID,ELEMENT_SET_NO,REV_AT_EPOCH,BSTAR,MEAN_MOTION_DOT,MEAN_MOTION_DDOT
GLOBALSTAR M069,2007-020C,2026-07-20T07:14:28.989888,12.23472403,.00015221,52.0014,158.3977,221.2256,303.6484,0,U,31573,999,88285,.36131564E-3,-.53E-6,0
GLOBALSTAR M066,2007-048C,2026-07-20T14:46:57.998784,12.30390155,.000552,51.9612,321.9495,112.7664,260.2400,0,U,32265,999,86434,.51906784E-3,-.33E-6,0
GLOBALSTAR M079,2010-054A,2026-07-20T19:11:47.650848,12.62266428,.0001122,52.0057,6.3479,86.8814,21.4025,0,U,37188,999,72679,.59721E-5,-.103E-5,0
GLOBALSTAR M074,2010-054B,2026-07-20T17:25:50.612736,12.62262037,.000085,52.0036,5.8322,101.4907,272.1774,0,U,37189,999,72739,-.22145E-4,-.108E-5,0
GLOBALSTAR M076,2010-054C,2026-07-20T18:32:24.680832,12.62262571,.0001096,52.0052,5.8977,98.8648,4.8835,0,U,37190,999,72711,.78716E-4,-.9E-6,0
GLOBALSTAR M077,2010-054D,2026-07-20T00:09:29.668896,11.67547200,.00021814,51.9961,95.9950,233.9275,225.5768,0,U,37191,999,72497,-.3716211E-3,-.98E-6,0
GLOBALSTAR M075,2010-054E,2026-07-20T20:46:27.579936,12.62267891,.0000788,51.9956,47.6493,73.1878,34.4152,0,U,37192,999,72619,-.28053E-4,-.109E-5,0
GLOBALSTAR M073,2010-054F,2026-07-20T14:34:57.745056,12.62266940,.0000991,52.0082,322.5622,105.3927,267.6127,0,U,37193,999,72815,.33742E-4,-.98E-6,0
GLOBALSTAR M083,2011-033A,2026-07-20T11:05:41.625312,12.62264350,.00006968,51.9856,271.1887,111.3845,262.1674,0,U,37739,999,69715,.55294409E-4,-.94E-6,0
GLOBALSTAR M088,2011-033B,2026-07-20T07:19:48.314784,12.62269494,.00001317,52.0191,178.1717,38.5229,100.6158,0,U,37740,999,69267,.30622093E-4,-.98E-6,0
GLOBALSTAR M091,2011-033C,2026-07-20T13:30:47.934720,12.62264310,.0000554,51.9989,140.3041,32.8709,138.0964,0,U,37741,999,69349,.99156E-4,-.86E-6,0
GLOBALSTAR M085,2011-033D,2026-07-20T20:17:56.994720,12.62264513,.0000883,52.0129,90.7653,51.7372,24.6874,0,U,37742,999,69404,.63626E-4,-.92E-6,0
GLOBALSTAR M081,2011-033E,2026-07-20T20:56:46.635936,12.62265381,.0000761,51.9960,93.0808,63.0555,15.8381,0,U,37743,999,69419,.39958E-4,-.97E-6,0
GLOBALSTAR M089,2011-033F,2026-07-20T18:05:40.136928,12.62267632,.0000724,51.9941,47.5945,96.2416,343.5802,0,U,37744,999,69502,-.22689E-4,-.108E-5,0
GLOBALSTAR M084,2011-080A,2026-07-20T08:53:55.880160,12.62263689,.0000719,52.0011,276.2622,139.1732,298.4337,0,U,38040,999,67295,.64381E-4,-.92E-6,0
GLOBALSTAR M080,2011-080B,2026-07-20T10:07:57.349056,12.62257607,.0000299,52.0060,277.8358,71.6833,9.3242,0,U,38041,999,67308,.50813E-4,-.95E-6,0
GLOBALSTAR M082,2011-080C,2026-07-20T08:14:25.638720,12.62264361,.00001918,52.0052,233.5791,59.3982,313.2431,0,U,38042,999,67378,.32460742E-4,-.98E-6,0
GLOBALSTAR M092,2011-080D,2026-07-20T07:39:48.877344,12.62267930,.00007384,52.0105,324.0500,111.9825,270.8003,0,U,38043,999,67223,.11414509E-3,-.83E-6,0
GLOBALSTAR M090,2011-080E,2026-07-20T19:13:24.219264,12.62269646,.0000389,52.0095,226.1523,81.3486,90.6895,0,U,38044,999,67395,.39463E-4,-.97E-6,0
GLOBALSTAR M086,2011-080F,2026-07-20T12:05:10.422240,12.62287860,.00014199,51.9871,226.9319,119.1904,44.9170,0,U,38045,999,67386,-.7123301E-5,-.105E-5,0
GLOBALSTAR M097,2013-005A,2026-07-20T02:28:57.232416,12.62271277,.00005373,52.0033,143.1347,45.2997,314.7913,0,U,39072,999,62106,.19912644E-4,-.1E-5,0
GLOBALSTAR M093,2013-005B,2026-07-20T13:14:35.477664,12.62266399,.0000773,52.0098,135.1300,51.5380,308.5556,0,U,39073,999,62107,.92331E-4,-.87E-6,0
GLOBALSTAR M094,2013-005C,2026-07-20T20:50:29.465376,12.62264294,.0001042,51.9970,48.2499,72.6919,287.4061,0,U,39074,999,62272,.1312E-4,-.101E-5,0
GLOBALSTAR M096,2013-005D,2026-07-20T04:03:44.285184,12.62265831,.00008297,52.0076,99.2062,51.6907,308.4034,0,U,39075,999,62155,.94129918E-4,-.87E-6,0
GLOBALSTAR M078,2013-005E,2026-07-20T14:49:13.136160,12.62260091,.0000966,51.9848,181.8056,353.4692,6.6161,0,U,39076,999,62023,-.42519E-5,-.105E-5,0
GLOBALSTAR M095,2013-005F,2026-07-20T07:51:31.164192,12.62264080,.00005732,52.0054,180.3391,21.1660,338.9230,0,U,39077,999,62005,-.772819E-6,-.104E-5,0
GLOBALSTAR M087,2022-064A,2026-07-20T08:10:22.096128,12.62269449,.00008982,52.0016,321.5199,91.1053,268.9917,0,U,52888,999,19532,.9853977E-4,-.86E-6,0
